[{"CCSDS_OMM_VERS":"2.0","COMMENT":"GENERATED VIA SPACE-TRACK.ORG API","CREATION_DATE":"2021-02-16T06:46:12","ORIGINATOR":"18 SPCS","OBJECT_NAME":"ONEWEB-0027","OBJECT_ID":"2020-020J","CENTER_NAME":"EARTH","REF_FRAME":"TEME","TIME_SYSTEM":"UTC","MEAN_ELEMENT_THEORY":"SGP4","EPOCH":"2021-02-16T06:00:00.999648","MEAN_MOTION":"14.55055472","ECCENTRICITY":"0.00265160","INCLINATION":"87.6524","RA_OF_ASC_NODE":"34.7564","ARG_OF_PERICENTER":"175.1993","MEAN_ANOMALY":"57.3705","EPHEMERIS_TYPE":"0","CLASSIFICATION_TYPE":"U","NORAD_CAT_ID":"45432","ELEMENT_SET_NO":"999","REV_AT_EPOCH":"4952","BSTAR":"-0.13508000000000","MEAN_MOTION_DOT":"-0.00555306","MEAN_MOTION_DDOT":"0.0000000000000","SEMIMAJOR_AXIS":"7087.322","PERIOD":"98.965","APOAPSIS":"727.979","PERIAPSIS":"690.394","OBJECT_TYPE":"PAYLOAD","RCS_SIZE":"MEDIUM","COUNTRY_CODE":"UK","LAUNCH_DATE":"2020-03-21","SITE":"TTMTR","DECAY_DATE":null,"FILE":"2963512","GP_ID":"171880536","TLE_LINE0":"0 ONEWEB-0027","TLE_LINE1":"1 45432U 20020J   21047.25001157 -.00555306  00000-0 -13508+0 0  9999","TLE_LINE2":"2 45432  87.6524  34.7564 0026516 175.1993  57.3705 14.55055472 49521"},{"CCSDS_OMM_VERS":"2.0","COMMENT":"GENERATED VIA SPACE-TRACK.ORG API","CREATION_DATE":"2021-02-16T18:55:05","ORIGINATOR":"18 SPCS","OBJECT_NAME":"ONEWEB-0027","OBJECT_ID":"2020-020J","CENTER_NAME":"EARTH","REF_FRAME":"TEME","TIME_SYSTEM":"UTC","MEAN_ELEMENT_THEORY":"SGP4","EPOCH":"2021-02-16T14:00:01.000224","MEAN_MOTION":"14.54718957","ECCENTRICITY":"0.00265680","INCLINATION":"87.6562","RA_OF_ASC_NODE":"34.6631","ARG_OF_PERICENTER":"173.6341","MEAN_ANOMALY":"3.6474","EPHEMERIS_TYPE":"0","CLASSIFICATION_TYPE":"U","NORAD_CAT_ID":"45432","ELEMENT_SET_NO":"999","REV_AT_EPOCH":"175","BSTAR":"-0.34451000000000","MEAN_MOTION_DOT":"-0.01369745","MEAN_MOTION_DDOT":"0.0000000000000","SEMIMAJOR_AXIS":"7088.415","PERIOD":"98.988","APOAPSIS":"729.112","PERIAPSIS":"691.447","OBJECT_TYPE":"PAYLOAD","RCS_SIZE":"MEDIUM","COUNTRY_CODE":"UK","LAUNCH_DATE":"2020-03-21","SITE":"TTMTR","DECAY_DATE":null,"FILE":"2964226","GP_ID":"171916665","TLE_LINE0":"0 ONEWEB-0027","TLE_LINE1":"1 45432U 20020J   21047.58334491 -.01369745  00000-0 -34451+0 0  9996","TLE_LINE2":"2 45432  87.6562  34.6631 0026568 173.6341   3.6474 14.54718957  1757"},{"CCSDS_OMM_VERS":"2.0","COMMENT":"GENERATED VIA SPACE-TRACK.ORG API","CREATION_DATE":"2021-02-16T14:36:12","ORIGINATOR":"18 SPCS","OBJECT_NAME":"ONEWEB-0027","OBJECT_ID":"2020-020J","CENTER_NAME":"EARTH","REF_FRAME":"TEME","TIME_SYSTEM":"UTC","MEAN_ELEMENT_THEORY":"SGP4","EPOCH":"2021-02-16T14:00:01.000224","MEAN_MOTION":"14.54718957","ECCENTRICITY":"0.00265680","INCLINATION":"87.6562","RA_OF_ASC_NODE":"34.6631","ARG_OF_PERICENTER":"173.6341","MEAN_ANOMALY":"3.6474","EPHEMERIS_TYPE":"0","CLASSIFICATION_TYPE":"U","NORAD_CAT_ID":"45432","ELEMENT_SET_NO":"999","REV_AT_EPOCH":"4957","BSTAR":"-0.34451000000000","MEAN_MOTION_DOT":"-0.01369745","MEAN_MOTION_DDOT":"0.0000000000000","SEMIMAJOR_AXIS":"7088.415","PERIOD":"98.988","APOAPSIS":"729.112","PERIAPSIS":"691.447","OBJECT_TYPE":"PAYLOAD","RCS_SIZE":"MEDIUM","COUNTRY_CODE":"UK","LAUNCH_DATE":"2020-03-21","SITE":"TTMTR","DECAY_DATE":null,"FILE":"2963908","GP_ID":"171889939","TLE_LINE0":"0 ONEWEB-0027","TLE_LINE1":"1 45432U 20020J   21047.58334491 -.01369745  00000-0 -34451+0 0  9996","TLE_LINE2":"2 45432  87.6562  34.6631 0026568 173.6341   3.6474 14.54718957 49579"},{"CCSDS_OMM_VERS":"2.0","COMMENT":"GENERATED VIA SPACE-TRACK.ORG API","CREATION_DATE":"2021-02-17T06:36:11","ORIGINATOR":"18 SPCS","OBJECT_NAME":"ONEWEB-0027","OBJECT_ID":"2020-020J","CENTER_NAME":"EARTH","REF_FRAME":"TEME","TIME_SYSTEM":"UTC","MEAN_ELEMENT_THEORY":"SGP4","EPOCH":"2021-02-17T06:00:00.999648","MEAN_MOTION":"14.52808513","ECCENTRICITY":"0.00265030","INCLINATION":"87.6650","RA_OF_ASC_NODE":"34.4754","ARG_OF_PERICENTER":"171.9884","MEAN_ANOMALY":"252.0528","EPHEMERIS_TYPE":"0","CLASSIFICATION_TYPE":"U","NORAD_CAT_ID":"45432","ELEMENT_SET_NO":"999","REV_AT_EPOCH":"4967","BSTAR":"-0.33439000000000","MEAN_MOTION_DOT":"-0.01282255","MEAN_MOTION_DDOT":"0.0000000000000","SEMIMAJOR_AXIS":"7094.627","PERIOD":"99.118","APOAPSIS":"735.295","PERIAPSIS":"697.689","OBJECT_TYPE":"PAYLOAD","RCS_SIZE":"MEDIUM","COUNTRY_CODE":"UK","LAUNCH_DATE":"2020-03-21","SITE":"TTMTR","DECAY_DATE":null,"FILE":"2964748","GP_ID":"171929715","TLE_LINE0":"0 ONEWEB-0027","TLE_LINE1":"1 45432U 20020J   21048.25001157 -.01282255  00000-0 -33439+0 0  9996","TLE_LINE2":"2 45432  87.6650  34.4754 0026503 171.9884 252.0528 14.52808513 49670"},{"CCSDS_OMM_VERS":"2.0","COMMENT":"GENERATED VIA SPACE-TRACK.ORG API","CREATION_DATE":"2021-02-17T18:54:02","ORIGINATOR":"18 SPCS","OBJECT_NAME":"ONEWEB-0027","OBJECT_ID":"2020-020J","CENTER_NAME":"EARTH","REF_FRAME":"TEME","TIME_SYSTEM":"UTC","MEAN_ELEMENT_THEORY":"SGP4","EPOCH":"2021-02-17T14:00:01.999872","MEAN_MOTION":"14.51938526","ECCENTRICITY":"0.00265680","INCLINATION":"87.6692","RA_OF_ASC_NODE":"34.3828","ARG_OF_PERICENTER":"170.9140","MEAN_ANOMALY":"194.8670","EPHEMERIS_TYPE":"0","CLASSIFICATION_TYPE":"U","NORAD_CAT_ID":"45432","ELEMENT_SET_NO":"999","REV_AT_EPOCH":"190","BSTAR":"-0.36664000000000","MEAN_MOTION_DOT":"-0.01372940","MEAN_MOTION_DDOT":"0.0000000000000","SEMIMAJOR_AXIS":"7097.461","PERIOD":"99.178","APOAPSIS":"738.183","PERIAPSIS":"700.470","OBJECT_TYPE":"PAYLOAD","RCS_SIZE":"MEDIUM","COUNTRY_CODE":"UK","LAUNCH_DATE":"2020-03-21","SITE":"TTMTR","DECAY_DATE":null,"FILE":"2965550","GP_ID":"171966967","TLE_LINE0":"0 ONEWEB-0027","TLE_LINE1":"1 45432U 20020J   21048.58335648 -.01372940  00000-0 -36664+0 0  9991","TLE_LINE2":"2 45432  87.6692  34.3828 0026568 170.9140 194.8670 14.51938526  1904"},{"CCSDS_OMM_VERS":"2.0","COMMENT":"GENERATED VIA SPACE-TRACK.ORG API","CREATION_DATE":"2021-02-18T03:25:47","ORIGINATOR":"18 SPCS","OBJECT_NAME":"ONEWEB-0027","OBJECT_ID":"2020-020J","CENTER_NAME":"EARTH","REF_FRAME":"TEME","TIME_SYSTEM":"UTC","MEAN_ELEMENT_THEORY":"SGP4","EPOCH":"2021-02-17T22:00:00.999936","MEAN_MOTION":"14.50949887","ECCENTRICITY":"0.00268500","INCLINATION":"87.6734","RA_OF_ASC_NODE":"34.2906","ARG_OF_PERICENTER":"169.4678","MEAN_ANOMALY":"136.8438","EPHEMERIS_TYPE":"0","CLASSIFICATION_TYPE":"U","NORAD_CAT_ID":"45432","ELEMENT_SET_NO":"999","REV_AT_EPOCH":"174","BSTAR":"-0.34291000000000","MEAN_MOTION_DOT":"-0.01265156","MEAN_MOTION_DDOT":"0.0000000000000","SEMIMAJOR_AXIS":"7100.685","PERIOD":"99.245","APOAPSIS":"741.615","PERIAPSIS":"703.484","OBJECT_TYPE":"PAYLOAD","RCS_SIZE":"MEDIUM","COUNTRY_CODE":"UK","LAUNCH_DATE":"2020-03-21","SITE":"TTMTR","DECAY_DATE":null,"FILE":"2965850","GP_ID":"171995790","TLE_LINE0":"0 ONEWEB-0027","TLE_LINE1":"1 45432U 20020J   21048.91667824 -.01265156  00000-0 -34291+0 0  9996","TLE_LINE2":"2 45432  87.6734  34.2906 0026850 169.4678 136.8438 14.50949887  1741"},{"CCSDS_OMM_VERS":"2.0","COMMENT":"GENERATED VIA SPACE-TRACK.ORG API","CREATION_DATE":"2021-02-17T22:46:13","ORIGINATOR":"18 SPCS","OBJECT_NAME":"ONEWEB-0027","OBJECT_ID":"2020-020J","CENTER_NAME":"EARTH","REF_FRAME":"TEME","TIME_SYSTEM":"UTC","MEAN_ELEMENT_THEORY":"SGP4","EPOCH":"2021-02-17T22:00:00.999936","MEAN_MOTION":"14.50949887","ECCENTRICITY":"0.00268500","INCLINATION":"87.6734","RA_OF_ASC_NODE":"34.2906","ARG_OF_PERICENTER":"169.4678","MEAN_ANOMALY":"136.8438","EPHEMERIS_TYPE":"0","CLASSIFICATION_TYPE":"U","NORAD_CAT_ID":"45432","ELEMENT_SET_NO":"999","REV_AT_EPOCH":"4977","BSTAR":"-0.34291000000000","MEAN_MOTION_DOT":"-0.01265156","MEAN_MOTION_DDOT":"0.0000000000000","SEMIMAJOR_AXIS":"7100.685","PERIOD":"99.245","APOAPSIS":"741.615","PERIAPSIS":"703.484","OBJECT_TYPE":"PAYLOAD","RCS_SIZE":"MEDIUM","COUNTRY_CODE":"UK","LAUNCH_DATE":"2020-03-21","SITE":"TTMTR","DECAY_DATE":null,"FILE":"2965675","GP_ID":"171971170","TLE_LINE0":"0 ONEWEB-0027","TLE_LINE1":"1 45432U 20020J   21048.91667824 -.01265156  00000-0 -34291+0 0  9996","TLE_LINE2":"2 45432  87.6734  34.2906 0026850 169.4678 136.8438 14.50949887 49776"},{"CCSDS_OMM_VERS":"2.0","COMMENT":"GENERATED VIA SPACE-TRACK.ORG API","CREATION_DATE":"2021-02-18T06:36:13","ORIGINATOR":"18 SPCS","OBJECT_NAME":"ONEWEB-0027","OBJECT_ID":"2020-020J","CENTER_NAME":"EARTH","REF_FRAME":"TEME","TIME_SYSTEM":"UTC","MEAN_ELEMENT_THEORY":"SGP4","EPOCH":"2021-02-18T06:00:00.999648","MEAN_MOTION":"14.50029979","ECCENTRICITY":"0.00268920","INCLINATION":"87.6777","RA_OF_ASC_NODE":"34.1968","ARG_OF_PERICENTER":"168.3708","MEAN_ANOMALY":"77.4154","EPHEMERIS_TYPE":"0","CLASSIFICATION_TYPE":"U","NORAD_CAT_ID":"45432","ELEMENT_SET_NO":"999","REV_AT_EPOCH":"4981","BSTAR":"-0.36077000000000","MEAN_MOTION_DOT":"-0.01302533","MEAN_MOTION_DDOT":"0.0000000000000","SEMIMAJOR_AXIS":"7103.688","PERIOD":"99.308","APOAPSIS":"744.656","PERIAPSIS":"706.449","OBJECT_TYPE":"PAYLOAD","RCS_SIZE":"MEDIUM","COUNTRY_CODE":"UK","LAUNCH_DATE":"2020-03-21","SITE":"TTMTR","DECAY_DATE":null,"FILE":"2965930","GP_ID":"171998963","TLE_LINE0":"0 ONEWEB-0027","TLE_LINE1":"1 45432U 20020J   21049.25001157 -.01302533  00000-0 -36077+0 0  9990","TLE_LINE2":"2 45432  87.6777  34.1968 0026892 168.3708  77.4154 14.50029979 49819"}]